{"fetched_at":"2026-07-18T17:29:34.864Z","source":"https://celestrak.org/NORAD/elements/gp.php?GROUP=qianfan&FORMAT=JSON","constellation":"qianfan","records":[{"OBJECT_NAME":"QIANFAN-209","OBJECT_ID":"2026-153J","EPOCH":"2026-07-18T06:28:12.919872","CLASSIFICATION_TYPE":"U","MEAN_MOTION":14.23086656,"ECCENTRICITY":0.00077093,"INCLINATION":88.9925,"RA_OF_ASC_NODE":358.6948,"ARG_OF_PERICENTER":170.4433,"MEAN_ANOMALY":189.6907,"EPHEMERIS_TYPE":0,"NORAD_CAT_ID":69808,"ELEMENT_SET_NO":999,"REV_AT_EPOCH":198,"BSTAR":0.000052753211,"MEAN_MOTION_DOT":0.00000134,"MEAN_MOTION_DDOT":0},{"OBJECT_NAME":"QIANFAN-210","OBJECT_ID":"2026-153K","EPOCH":"2026-07-18T06:23:08.337408","CLASSIFICATION_TYPE":"U","MEAN_MOTION":14.2325276,"ECCENTRICITY":0.00082569,"INCLINATION":88.9926,"RA_OF_ASC_NODE":358.6944,"ARG_OF_PERICENTER":173.1711,"MEAN_ANOMALY":186.9595,"EPHEMERIS_TYPE":0,"NORAD_CAT_ID":69809,"ELEMENT_SET_NO":999,"REV_AT_EPOCH":198,"BSTAR":0.000048618841,"MEAN_MOTION_DOT":0.00000125,"MEAN_MOTION_DDOT":0},{"OBJECT_NAME":"QIANFAN-211","OBJECT_ID":"2026-153L","EPOCH":"2026-07-18T06:22:18.100992","CLASSIFICATION_TYPE":"U","MEAN_MOTION":14.23382353,"ECCENTRICITY":0.00078769,"INCLINATION":88.9926,"RA_OF_ASC_NODE":358.6942,"ARG_OF_PERICENTER":170.1589,"MEAN_ANOMALY":189.9759,"EPHEMERIS_TYPE":0,"NORAD_CAT_ID":69810,"ELEMENT_SET_NO":999,"REV_AT_EPOCH":198,"BSTAR":0.000054739521,"MEAN_MOTION_DOT":0.00000139,"MEAN_MOTION_DDOT":0},{"OBJECT_NAME":"QIANFAN-212","OBJECT_ID":"2026-153M","EPOCH":"2026-07-17T13:21:48.245760","CLASSIFICATION_TYPE":"U","MEAN_MOTION":14.218371,"ECCENTRICITY":0.0007528,"INCLINATION":88.992,"RA_OF_ASC_NODE":358.7744,"ARG_OF_PERICENTER":169.0889,"MEAN_ANOMALY":191.0467,"EPHEMERIS_TYPE":0,"NORAD_CAT_ID":69811,"ELEMENT_SET_NO":999,"REV_AT_EPOCH":188,"BSTAR":-0.88345,"MEAN_MOTION_DOT":-0.01812966,"MEAN_MOTION_DDOT":0},{"OBJECT_NAME":"QIANFAN-213","OBJECT_ID":"2026-153N","EPOCH":"2026-07-17T11:40:56.277408","CLASSIFICATION_TYPE":"U","MEAN_MOTION":14.21585762,"ECCENTRICITY":0.0006786,"INCLINATION":88.9919,"RA_OF_ASC_NODE":358.7827,"ARG_OF_PERICENTER":174.7343,"MEAN_ANOMALY":185.392,"EPHEMERIS_TYPE":0,"NORAD_CAT_ID":69812,"ELEMENT_SET_NO":999,"REV_AT_EPOCH":187,"BSTAR":-0.89107,"MEAN_MOTION_DOT":-0.01819392,"MEAN_MOTION_DDOT":0},{"OBJECT_NAME":"QIANFAN-214","OBJECT_ID":"2026-153P","EPOCH":"2026-07-17T20:07:40.994688","CLASSIFICATION_TYPE":"U","MEAN_MOTION":14.26715399,"ECCENTRICITY":0.00081141,"INCLINATION":88.9925,"RA_OF_ASC_NODE":358.7421,"ARG_OF_PERICENTER":175.5831,"MEAN_ANOMALY":184.5436,"EPHEMERIS_TYPE":0,"NORAD_CAT_ID":69813,"ELEMENT_SET_NO":999,"REV_AT_EPOCH":192,"BSTAR":0.000033203706,"MEAN_MOTION_DOT":9.5e-7,"MEAN_MOTION_DDOT":0},{"OBJECT_NAME":"QIANFAN-215","OBJECT_ID":"2026-153Q","EPOCH":"2026-07-18T06:13:36.756480","CLASSIFICATION_TYPE":"U","MEAN_MOTION":14.26718939,"ECCENTRICITY":0.00082573,"INCLINATION":88.9924,"RA_OF_ASC_NODE":358.6931,"ARG_OF_PERICENTER":175.5942,"MEAN_ANOMALY":184.5326,"EPHEMERIS_TYPE":0,"NORAD_CAT_ID":69814,"ELEMENT_SET_NO":999,"REV_AT_EPOCH":198,"BSTAR":0.000048929922,"MEAN_MOTION_DOT":0.00000133,"MEAN_MOTION_DDOT":0},{"OBJECT_NAME":"QIANFAN-216","OBJECT_ID":"2026-153R","EPOCH":"2026-07-18T06:13:36.057504","CLASSIFICATION_TYPE":"U","MEAN_MOTION":14.26720069,"ECCENTRICITY":0.00082215,"INCLINATION":88.9925,"RA_OF_ASC_NODE":358.6933,"ARG_OF_PERICENTER":175.3587,"MEAN_ANOMALY":184.7684,"EPHEMERIS_TYPE":0,"NORAD_CAT_ID":69815,"ELEMENT_SET_NO":999,"REV_AT_EPOCH":198,"BSTAR":0.000050405199,"MEAN_MOTION_DOT":0.00000137,"MEAN_MOTION_DDOT":0},{"OBJECT_NAME":"QIANFAN-217","OBJECT_ID":"2026-153S","EPOCH":"2026-07-18T06:12:54.694368","CLASSIFICATION_TYPE":"U","MEAN_MOTION":14.26768158,"ECCENTRICITY":0.00079326,"INCLINATION":88.9924,"RA_OF_ASC_NODE":358.6931,"ARG_OF_PERICENTER":172.0905,"MEAN_ANOMALY":188.0415,"EPHEMERIS_TYPE":0,"NORAD_CAT_ID":69816,"ELEMENT_SET_NO":999,"REV_AT_EPOCH":198,"BSTAR":0.000017244188,"MEAN_MOTION_DOT":5.6e-7,"MEAN_MOTION_DDOT":0},{"OBJECT_NAME":"QIANFAN-218","OBJECT_ID":"2026-153T","EPOCH":"2026-07-18T04:31:20.377920","CLASSIFICATION_TYPE":"U","MEAN_MOTION":14.2681122,"ECCENTRICITY":0.00076988,"INCLINATION":88.9927,"RA_OF_ASC_NODE":358.7016,"ARG_OF_PERICENTER":169.5743,"MEAN_ANOMALY":190.5612,"EPHEMERIS_TYPE":0,"NORAD_CAT_ID":69817,"ELEMENT_SET_NO":999,"REV_AT_EPOCH":197,"BSTAR":0.000048250077,"MEAN_MOTION_DOT":0.00000132,"MEAN_MOTION_DDOT":0},{"OBJECT_NAME":"QIANFAN-219","OBJECT_ID":"2026-155A","EPOCH":"2026-07-18T05:46:04.130112","CLASSIFICATION_TYPE":"U","MEAN_MOTION":14.2645535,"ECCENTRICITY":0.00308021,"INCLINATION":89.0064,"RA_OF_ASC_NODE":60.5996,"ARG_OF_PERICENTER":212.7163,"MEAN_ANOMALY":147.2124,"EPHEMERIS_TYPE":0,"NORAD_CAT_ID":69848,"ELEMENT_SET_NO":999,"REV_AT_EPOCH":181,"BSTAR":0.000016442052,"MEAN_MOTION_DOT":5.4e-7,"MEAN_MOTION_DDOT":0},{"OBJECT_NAME":"QIANFAN-220","OBJECT_ID":"2026-155B","EPOCH":"2026-07-17T20:03:36.390240","CLASSIFICATION_TYPE":"U","MEAN_MOTION":14.15144118,"ECCENTRICITY":0.00340039,"INCLINATION":89.0064,"RA_OF_ASC_NODE":60.6507,"ARG_OF_PERICENTER":211.1294,"MEAN_ANOMALY":148.788,"EPHEMERIS_TYPE":0,"NORAD_CAT_ID":69849,"ELEMENT_SET_NO":999,"REV_AT_EPOCH":175,"BSTAR":-1.1202131,"MEAN_MOTION_DOT":-0.02023166,"MEAN_MOTION_DDOT":0},{"OBJECT_NAME":"QIANFAN-221","OBJECT_ID":"2026-155C","EPOCH":"2026-07-18T05:44:42.749088","CLASSIFICATION_TYPE":"U","MEAN_MOTION":14.2664775,"ECCENTRICITY":0.00306083,"INCLINATION":89.0064,"RA_OF_ASC_NODE":60.5994,"ARG_OF_PERICENTER":213.1536,"MEAN_ANOMALY":146.7741,"EPHEMERIS_TYPE":0,"NORAD_CAT_ID":69850,"ELEMENT_SET_NO":999,"REV_AT_EPOCH":181,"BSTAR":0.000073103408,"MEAN_MOTION_DOT":0.00000192,"MEAN_MOTION_DDOT":0},{"OBJECT_NAME":"QIANFAN-222","OBJECT_ID":"2026-155D","EPOCH":"2026-07-17T19:58:00.985440","CLASSIFICATION_TYPE":"U","MEAN_MOTION":14.22185075,"ECCENTRICITY":0.00295553,"INCLINATION":89.0065,"RA_OF_ASC_NODE":60.6495,"ARG_OF_PERICENTER":214.6997,"MEAN_ANOMALY":145.2267,"EPHEMERIS_TYPE":0,"NORAD_CAT_ID":69851,"ELEMENT_SET_NO":999,"REV_AT_EPOCH":175,"BSTAR":0.000015570034,"MEAN_MOTION_DOT":4.9e-7,"MEAN_MOTION_DDOT":0},{"OBJECT_NAME":"QIANFAN-223","OBJECT_ID":"2026-155E","EPOCH":"2026-07-18T06:02:43.526688","CLASSIFICATION_TYPE":"U","MEAN_MOTION":14.22140218,"ECCENTRICITY":0.00293424,"INCLINATION":89.0065,"RA_OF_ASC_NODE":60.6016,"ARG_OF_PERICENTER":212.6138,"MEAN_ANOMALY":147.3242,"EPHEMERIS_TYPE":0,"NORAD_CAT_ID":69852,"ELEMENT_SET_NO":999,"REV_AT_EPOCH":181,"BSTAR":0.000067979978,"MEAN_MOTION_DOT":0.00000165,"MEAN_MOTION_DDOT":0},{"OBJECT_NAME":"QIANFAN-224","OBJECT_ID":"2026-155F","EPOCH":"2026-07-17T21:29:45.028320","CLASSIFICATION_TYPE":"U","MEAN_MOTION":14.18497223,"ECCENTRICITY":0.00311144,"INCLINATION":89.0052,"RA_OF_ASC_NODE":60.6399,"ARG_OF_PERICENTER":224.5648,"MEAN_ANOMALY":135.3039,"EPHEMERIS_TYPE":0,"NORAD_CAT_ID":69853,"ELEMENT_SET_NO":999,"REV_AT_EPOCH":176,"BSTAR":-0.93450076,"MEAN_MOTION_DOT":-0.01809487,"MEAN_MOTION_DDOT":0}]}
